<?xml version="1.0" encoding="UTF-8"?>
<ndm xmlns:xsi="http://www.w3.org/2001/XMLSchema-instance" xsi:noNamespaceSchemaLocation="https://sanaregistry.org/r/ndmxml_unqualified/ndmxml-2.0.0-master-2.0.xsd">
<omm id="CCSDS_OMM_VERS" version="2.0">
<header><CREATION_DATE/><ORIGINATOR/></header><body><segment><metadata><OBJECT_NAME>IRIDIUM 22</OBJECT_NAME><OBJECT_ID>1997-043E</OBJECT_ID><CENTER_NAME>EARTH</CENTER_NAME><REF_FRAME>TEME</REF_FRAME><TIME_SYSTEM>UTC</TIME_SYSTEM><MEAN_ELEMENT_THEORY>SGP4</MEAN_ELEMENT_THEORY></metadata><data><meanElements><EPOCH>2025-07-04T21:14:48.781248</EPOCH><MEAN_MOTION>14.35967718</MEAN_MOTION><ECCENTRICITY>.0002182</ECCENTRICITY><INCLINATION>86.3964</INCLINATION><RA_OF_ASC_NODE>106.7443</RA_OF_ASC_NODE><ARG_OF_PERICENTER>83.4953</ARG_OF_PERICENTER><MEAN_ANOMALY>276.6492</MEAN_ANOMALY></meanElements><tleParameters><EPHEMERIS_TYPE>0</EPHEMERIS_TYPE><CLASSIFICATION_TYPE>U</CLASSIFICATION_TYPE><NORAD_CAT_ID>24907</NORAD_CAT_ID><ELEMENT_SET_NO>999</ELEMENT_SET_NO><REV_AT_EPOCH>45931</REV_AT_EPOCH><BSTAR>.80106E-4</BSTAR><MEAN_MOTION_DOT>.252E-5</MEAN_MOTION_DOT><MEAN_MOTION_DDOT>0</MEAN_MOTION_DDOT></tleParameters></data></segment></body></omm>
<omm id="CCSDS_OMM_VERS" version="2.0">
<header><CREATION_DATE/><ORIGINATOR/></header><body><segment><metadata><OBJECT_NAME>DUMMY MASS 1</OBJECT_NAME><OBJECT_ID>1997-048A</OBJECT_ID><CENTER_NAME>EARTH</CENTER_NAME><REF_FRAME>TEME</REF_FRAME><TIME_SYSTEM>UTC</TIME_SYSTEM><MEAN_ELEMENT_THEORY>SGP4</MEAN_ELEMENT_THEORY></metadata><data><meanElements><EPOCH>2025-07-04T20:18:55.186848</EPOCH><MEAN_MOTION>14.86997547</MEAN_MOTION><ECCENTRICITY>.0009073</ECCENTRICITY><INCLINATION>86.3363</INCLINATION><RA_OF_ASC_NODE>127.1668</RA_OF_ASC_NODE><ARG_OF_PERICENTER>85.5404</ARG_OF_PERICENTER><MEAN_ANOMALY>274.6857</MEAN_ANOMALY></meanElements><tleParameters><EPHEMERIS_TYPE>0</EPHEMERIS_TYPE><CLASSIFICATION_TYPE>U</CLASSIFICATION_TYPE><NORAD_CAT_ID>24925</NORAD_CAT_ID><ELEMENT_SET_NO>999</ELEMENT_SET_NO><REV_AT_EPOCH>50775</REV_AT_EPOCH><BSTAR>.34969E-4</BSTAR><MEAN_MOTION_DOT>.342E-5</MEAN_MOTION_DOT><MEAN_MOTION_DDOT>0</MEAN_MOTION_DDOT></tleParameters></data></segment></body></omm>
<omm id="CCSDS_OMM_VERS" version="2.0">
<header><CREATION_DATE/><ORIGINATOR/></header><body><segment><metadata><OBJECT_NAME>IRIDIUM 29</OBJECT_NAME><OBJECT_ID>1997-051A</OBJECT_ID><CENTER_NAME>EARTH</CENTER_NAME><REF_FRAME>TEME</REF_FRAME><TIME_SYSTEM>UTC</TIME_SYSTEM><MEAN_ELEMENT_THEORY>SGP4</MEAN_ELEMENT_THEORY></metadata><data><meanElements><EPOCH>2025-07-04T21:38:46.804704</EPOCH><MEAN_MOTION>14.36479519</MEAN_MOTION><ECCENTRICITY>.000214</ECCENTRICITY><INCLINATION>86.3980</INCLINATION><RA_OF_ASC_NODE>136.4702</RA_OF_ASC_NODE><ARG_OF_PERICENTER>89.9338</ARG_OF_PERICENTER><MEAN_ANOMALY>270.2104</MEAN_ANOMALY></meanElements><tleParameters><EPHEMERIS_TYPE>0</EPHEMERIS_TYPE><CLASSIFICATION_TYPE>U</CLASSIFICATION_TYPE><NORAD_CAT_ID>24944</NORAD_CAT_ID><ELEMENT_SET_NO>999</ELEMENT_SET_NO><REV_AT_EPOCH>45581</REV_AT_EPOCH><BSTAR>.10398E-3</BSTAR><MEAN_MOTION_DOT>.325E-5</MEAN_MOTION_DOT><MEAN_MOTION_DDOT>0</MEAN_MOTION_DDOT></tleParameters></data></segment></body></omm>
<omm id="CCSDS_OMM_VERS" version="2.0">
<header><CREATION_DATE/><ORIGINATOR/></header><body><segment><metadata><OBJECT_NAME>IRIDIUM 33</OBJECT_NAME><OBJECT_ID>1997-051C</OBJECT_ID><CENTER_NAME>EARTH</CENTER_NAME><REF_FRAME>TEME</REF_FRAME><TIME_SYSTEM>UTC</TIME_SYSTEM><MEAN_ELEMENT_THEORY>SGP4</MEAN_ELEMENT_THEORY></metadata><data><meanElements><EPOCH>2025-07-04T21:40:35.675616</EPOCH><MEAN_MOTION>14.34901534</MEAN_MOTION><ECCENTRICITY>.0009022</ECCENTRICITY><INCLINATION>86.3895</INCLINATION><RA_OF_ASC_NODE>135.7313</RA_OF_ASC_NODE><ARG_OF_PERICENTER>34.0602</ARG_OF_PERICENTER><MEAN_ANOMALY>326.1171</MEAN_ANOMALY></meanElements><tleParameters><EPHEMERIS_TYPE>0</EPHEMERIS_TYPE><CLASSIFICATION_TYPE>U</CLASSIFICATION_TYPE><NORAD_CAT_ID>24946</NORAD_CAT_ID><ELEMENT_SET_NO>999</ELEMENT_SET_NO><REV_AT_EPOCH>45528</REV_AT_EPOCH><BSTAR>.85989E-4</BSTAR><MEAN_MOTION_DOT>.264E-5</MEAN_MOTION_DOT><MEAN_MOTION_DDOT>0</MEAN_MOTION_DDOT></tleParameters></data></segment></body></omm>
<omm id="CCSDS_OMM_VERS" version="2.0">
<header><CREATION_DATE/><ORIGINATOR/></header><body><segment><metadata><OBJECT_NAME>IRIDIUM 28</OBJECT_NAME><OBJECT_ID>1997-051E</OBJECT_ID><CENTER_NAME>EARTH</CENTER_NAME><REF_FRAME>TEME</REF_FRAME><TIME_SYSTEM>UTC</TIME_SYSTEM><MEAN_ELEMENT_THEORY>SGP4</MEAN_ELEMENT_THEORY></metadata><data><meanElements><EPOCH>2025-07-04T20:44:45.190752</EPOCH><MEAN_MOTION>14.37395947</MEAN_MOTION><ECCENTRICITY>.0002581</ECCENTRICITY><INCLINATION>86.3983</INCLINATION><RA_OF_ASC_NODE>133.9923</RA_OF_ASC_NODE><ARG_OF_PERICENTER>76.8019</ARG_OF_PERICENTER><MEAN_ANOMALY>283.3466</MEAN_ANOMALY></meanElements><tleParameters><EPHEMERIS_TYPE>0</EPHEMERIS_TYPE><CLASSIFICATION_TYPE>U</CLASSIFICATION_TYPE><NORAD_CAT_ID>24948</NORAD_CAT_ID><ELEMENT_SET_NO>999</ELEMENT_SET_NO><REV_AT_EPOCH>45638</REV_AT_EPOCH><BSTAR>.94808E-4</BSTAR><MEAN_MOTION_DOT>.303E-5</MEAN_MOTION_DOT><MEAN_MOTION_DDOT>0</MEAN_MOTION_DDOT></tleParameters></data></segment></body></omm>
<omm id="CCSDS_OMM_VERS" version="2.0">
<header><CREATION_DATE/><ORIGINATOR/></header><body><segment><metadata><OBJECT_NAME>IRIDIUM 36</OBJECT_NAME><OBJECT_ID>1997-056C</OBJECT_ID><CENTER_NAME>EARTH</CENTER_NAME><REF_FRAME>TEME</REF_FRAME><TIME_SYSTEM>UTC</TIME_SYSTEM><MEAN_ELEMENT_THEORY>SGP4</MEAN_ELEMENT_THEORY></metadata><data><meanElements><EPOCH>2025-07-04T21:28:13.907424</EPOCH><MEAN_MOTION>14.37620745</MEAN_MOTION><ECCENTRICITY>.0002165</ECCENTRICITY><INCLINATION>86.3994</INCLINATION><RA_OF_ASC_NODE>165.5637</RA_OF_ASC_NODE><ARG_OF_PERICENTER>82.1750</ARG_OF_PERICENTER><MEAN_ANOMALY>277.9693</MEAN_ANOMALY></meanElements><tleParameters><EPHEMERIS_TYPE>0</EPHEMERIS_TYPE><CLASSIFICATION_TYPE>U</CLASSIFICATION_TYPE><NORAD_CAT_ID>24967</NORAD_CAT_ID><ELEMENT_SET_NO>999</ELEMENT_SET_NO><REV_AT_EPOCH>45476</REV_AT_EPOCH><BSTAR>.10113E-3</BSTAR><MEAN_MOTION_DOT>.323E-5</MEAN_MOTION_DOT><MEAN_MOTION_DDOT>0</MEAN_MOTION_DDOT></tleParameters></data></segment></body></omm>

</ndm>
